{"type": "FeatureCollection", "features": [{"type": "Feature", "properties": {"nombre": "Uruguay"}, "geometry": {"type": "MultiPolygon", "coordinates": [[[[-58.1895, -32.5], [-58.2012, -32.4717], [-58.123, -32.3219], [-58.1197, -32.2489], [-58.1648, -32.1849], [-58.177, -32.119], [-58.1563, -32.0516], [-58.1604, -31.9865], [-58.189, -31.9242], [-58.1675, -31.8727], [-58.0958, -31.8318], [-58.0423, -31.7692], [-58.007, -31.685], [-57.9889, -31.6206], [-57.988, -31.5762], [-58.0097, -31.5344], [-58.0539, -31.4949], [-58.0334, -31.4166], [-57.9483, -31.2994], [-57.8934, -31.1953], [-57.8684, -31.1044], [-57.8701, -31.0311], [-57.8983, -30.9752], [-57.8863, -30.9374], [-57.8341, -30.9175], [-57.8106, -30.8586], [-57.8186, -30.712], [-57.8725, -30.591], [-57.8312, -30.4952], [-57.7127, -30.3845], [-57.6509, -30.295], [-57.6458, -30.227], [-57.6089, -30.1878], [-57.5523, -30.2612], [-57.3838, -30.2807], [-57.2145, -30.2834], [-57.1869, -30.2648], [-57.1205, -30.1444], [-57.0327, -30.11], [-56.9373, -30.1011], [-56.8327, -30.1072], [-56.7217, -30.1869], [-56.4072, -30.4475], [-56.1762, -30.6284], [-56.1059, -30.7138], [-56.0448, -30.7776], [-55.999, -30.8372], [-56.0185, -30.9919], [-56.0155, -31.0597], [-56.0047, -31.0792], [-55.952, -31.0809], [-55.8737, -31.0696], [-55.8078, -31.0367], [-55.7563, -30.9871], [-55.706, -30.9466], [-55.6652, -30.9249], [-55.6505, -30.8921], [-55.6271, -30.8581], [-55.603, -30.8508], [-55.5573, -30.876], [-55.4496, -30.9645], [-55.3661, -31.0462], [-55.3455, -31.093], [-55.3133, -31.1417], [-55.279, -31.1842], [-55.2546, -31.2256], [-55.1735, -31.2796], [-55.0912, -31.314], [-55.036, -31.279], [-54.896, -31.3912], [-54.5876, -31.4852], [-54.5309, -31.542], [-54.4777, -31.6228], [-54.3699, -31.745], [-54.2206, -31.8552], [-54.1004, -31.9016], [-53.9852, -31.9281], [-53.9206, -31.9523], [-53.8765, -31.9945], [-53.8061, -32.0399], [-53.7617, -32.0568], [-53.7466, -32.0975], [-53.7011, -32.1863], [-53.6536, -32.2987], [-53.6017, -32.403], [-53.493, -32.5], [-58.1895, -32.5]]]]}}, {"type": "Feature", "properties": {"nombre": "Paraguay"}, "geometry": {"type": "MultiPolygon", "coordinates": [[[[-58.1598, -20.1646], [-58.1378, -20.2373], [-58.1246, -20.2935], [-58.0915, -20.3332], [-58.0584, -20.3861], [-58.0254, -20.4158], [-58.0022, -20.4654], [-58.0088, -20.5217], [-57.9956, -20.5944], [-57.9791, -20.6573], [-57.9625, -20.6738], [-57.9151, -20.6903], [-57.8914, -20.7475], [-57.9085, -20.7764], [-57.9019, -20.8094], [-57.8848, -20.8417], [-57.9005, -20.873], [-57.8922, -20.8971], [-57.86, -20.9186], [-57.8302, -20.9979], [-57.827, -21.1336], [-57.86, -21.2063], [-57.8865, -21.2658], [-57.8931, -21.3022], [-57.8732, -21.3551], [-57.9063, -21.418], [-57.946, -21.494], [-57.9361, -21.547], [-57.9294, -21.5966], [-57.9262, -21.6495], [-57.9162, -21.6991], [-57.9294, -21.752], [-57.9427, -21.7983], [-57.9493, -21.8512], [-57.9328, -21.9107], [-57.9625, -21.967], [-57.9791, -22.0066], [-57.9857, -22.0464], [-57.9559, -22.1092], [-57.8798, -22.1356], [-57.8203, -22.1423], [-57.7641, -22.1092], [-57.7211, -22.0992], [-57.6417, -22.129], [-57.5689, -22.1819], [-57.4764, -22.1886], [-57.3937, -22.1984], [-57.3309, -22.215], [-57.2382, -22.1952], [-57.1423, -22.215], [-57.0299, -22.2448], [-56.9373, -22.2713], [-56.8447, -22.2646], [-56.7752, -22.2613], [-56.7024, -22.2315], [-56.633, -22.2349], [-56.5801, -22.1819], [-56.5503, -22.1356], [-56.5238, -22.1025], [-56.4478, -22.0762], [-56.3949, -22.0927], [-56.3519, -22.1786], [-56.2758, -22.2282], [-56.246, -22.2646], [-56.1898, -22.2812], [-56.0675, -22.2845], [-55.9914, -22.2812], [-55.9054, -22.3076], [-55.8492, -22.3076], [-55.7996, -22.3539], [-55.7533, -22.4102], [-55.7466, -22.5127], [-55.7037, -22.5921], [-55.6474, -22.6219], [-55.6177, -22.6715], [-55.6276, -22.7409], [-55.6541, -22.8104], [-55.6507, -22.8864], [-55.621, -22.9559], [-55.621, -23.0253], [-55.6011, -23.0947], [-55.5614, -23.1543], [-55.5482, -23.2502], [-55.5548, -23.3196], [-55.5284, -23.3594], [-55.5185, -23.4156], [-55.535, -23.4619], [-55.5416, -23.5247], [-55.5383, -23.581], [-55.5185, -23.6272], [-55.4589, -23.6867], [-55.4424, -23.7926], [-55.4424, -23.8653], [-55.4159, -23.9514], [-55.3663, -23.991], [-55.2869, -24.0043], [-55.1943, -24.0175], [-55.0819, -23.9977], [-54.9827, -23.9745], [-54.9265, -23.9514], [-54.8173, -23.8885], [-54.7214, -23.8521], [-54.6718, -23.829], [-54.6255, -23.8125], [-54.5296, -23.8521], [-54.4402, -23.9018], [-54.3708, -23.9712], [-54.2418, -24.0473], [-54.2669, -24.0658], [-54.3183, -24.1281], [-54.3173, -24.2013], [-54.281, -24.3061], [-54.3129, -24.5281], [-54.413, -24.8675], [-54.4541, -25.0652], [-54.4362, -25.1213], [-54.4731, -25.2202], [-54.6105, -25.4327], [-54.6159, -25.5761], [-54.6319, -26.0058], [-54.6777, -26.3088], [-54.7551, -26.5329], [-54.8255, -26.6522], [-54.8889, -26.6668], [-54.9345, -26.7025], [-54.9622, -26.7594], [-55.0136, -26.8066], [-55.0889, -26.8445], [-55.1296, -26.886], [-55.1359, -26.9312], [-55.208, -26.9602], [-55.3458, -26.9731], [-55.4267, -27.0093], [-55.4506, -27.0684], [-55.4967, -27.1153], [-55.5649, -27.15], [-55.5973, -27.2076], [-55.5938, -27.2881], [-55.6329, -27.3571], [-55.7146, -27.4148], [-55.79, -27.4164], [-55.859, -27.3619], [-55.9515, -27.3257], [-56.0673, -27.3077], [-56.1641, -27.3215], [-56.2417, -27.3668], [-56.3105, -27.4388], [-56.3705, -27.5374], [-56.4372, -27.5538], [-56.5105, -27.4879], [-56.6034, -27.4679], [-56.7157, -27.4937], [-56.8052, -27.4847], [-56.8717, -27.4406], [-56.974, -27.4357], [-57.1118, -27.4701], [-57.3913, -27.4305], [-57.8122, -27.3166], [-58.1683, -27.2734], [-58.6048, -27.3144], [-58.6417, -27.1961], [-58.6186, -27.1321], [-58.5477, -27.084], [-58.5032, -27.0295], [-58.4853, -26.9685], [-58.4363, -26.922], [-58.3564, -26.89], [-58.3226, -26.8576], [-58.3347, -26.8249], [-58.3177, -26.7959], [-58.2717, -26.7707], [-58.2456, -26.7311], [-58.2394, -26.6769], [-58.2221, -26.65], [-58.1913, -26.63], [-58.1879, -26.5926], [-58.2052, -26.4766], [-58.203, -26.3814], [-58.1815, -26.3074], [-58.1547, -26.2626], [-58.1356, -26.2515], [-58.1181, -26.2249], [-58.1111, -26.1802], [-58.0824, -26.1386], [-57.9431, -26.0529], [-57.8906, -26.0065], [-57.8862, -25.9643], [-57.8652, -25.9069], [-57.7825, -25.7837], [-57.7571, -25.726], [-57.7548, -25.6971], [-57.7255, -25.6672], [-57.6258, -25.5987], [-57.5717, -25.5342], [-57.5631, -25.4737], [-57.5872, -25.4051], [-57.6439, -25.3284], [-57.8217, -25.1364], [-57.9598, -25.0492], [-58.1365, -24.9771], [-58.2528, -24.9538], [-58.3087, -24.9791], [-58.3654, -24.9593], [-58.4228, -24.8941], [-58.5196, -24.8429], [-58.724, -24.7866], [-59.1873, -24.5623], [-59.3729, -24.4539], [-59.4354, -24.387], [-59.6086, -24.2668], [-59.8925, -24.0936], [-60.1103, -24.0092], [-60.2622, -24.014], [-60.5, -23.9647], [-60.5, -19.5], [-58.7244, -19.5], [-58.4742, -19.6461], [-58.1802, -19.8179], [-58.1601, -19.8549], [-58.1399, -19.9988], [-58.1598, -20.1646]]]]}}, {"type": "Feature", "properties": {"nombre": "Brasil"}, "geometry": {"type": "MultiPolygon", "coordinates": [[[[-47.5, -19.5], [-47.5, -24.7227], [-47.5922, -24.7811], [-47.8312, -24.9529], [-47.8766, -24.9975], [-47.9143, -24.9999], [-47.9892, -25.0357], [-47.9594, -25.0654], [-47.9083, -25.0682], [-47.9294, -25.1683], [-48.0244, -25.2367], [-48.2027, -25.4165], [-48.2424, -25.4033], [-48.1859, -25.3099], [-48.2735, -25.3063], [-48.4025, -25.2721], [-48.4585, -25.3107], [-48.4276, -25.4033], [-48.4761, -25.443], [-48.5642, -25.4475], [-48.644, -25.4365], [-48.7317, -25.3687], [-48.6922, -25.4915], [-48.507, -25.5213], [-48.4299, -25.5502], [-48.4012, -25.5974], [-48.5452, -25.8159], [-48.6658, -25.8443], [-48.679, -25.8752], [-48.6128, -25.875], [-48.5763, -25.9354], [-48.6194, -26.1794], [-48.679, -26.2258], [-48.7138, -26.227], [-48.7483, -26.2687], [-48.7007, -26.3483], [-48.6516, -26.4064], [-48.6582, -26.5191], [-48.6765, -26.6124], [-48.6777, -26.7029], [-48.6157, -26.8781], [-48.5934, -27.058], [-48.5684, -27.1234], [-48.5541, -27.196], [-48.5955, -27.2639], [-48.572, -27.3728], [-48.6426, -27.5579], [-48.6057, -27.8252], [-48.6208, -28.0756], [-48.6484, -28.2072], [-48.6932, -28.3102], [-48.7973, -28.4427], [-48.7997, -28.5753], [-49.0236, -28.6986], [-49.2713, -28.8712], [-49.4999, -29.0754], [-49.746, -29.3632], [-50.0333, -29.801], [-50.2995, -30.4258], [-50.62, -30.8977], [-50.7481, -31.0681], [-50.9214, -31.2584], [-51.1518, -31.4804], [-51.4604, -31.7024], [-51.7981, -31.9003], [-51.9202, -31.9896], [-52.0392, -32.1148], [-52.0689, -32.0631], [-52.0432, -31.9775], [-52.0596, -31.9135], [-52.0632, -31.8304], [-51.9951, -31.815], [-51.8932, -31.8678], [-51.8412, -31.832], [-51.8034, -31.7967], [-51.6807, -31.7746], [-51.4462, -31.5573], [-51.2722, -31.477], [-51.1743, -31.3397], [-51.1575, -31.2668], [-51.1614, -31.1188], [-51.106, -31.0813], [-50.9801, -31.0942], [-50.9544, -31.0521], [-50.9653, -31.0055], [-50.9408, -30.9037], [-50.7702, -30.8134], [-50.6893, -30.7042], [-50.7163, -30.426], [-50.6851, -30.4135], [-50.6148, -30.4568], [-50.5819, -30.4389], [-50.5465, -30.3169], [-50.5635, -30.2536], [-50.6462, -30.2368], [-50.9319, -30.3743], [-51.025, -30.3687], [-51.0404, -30.2606], [-51.1793, -30.211], [-51.2336, -30.1214], [-51.2499, -30.06], [-51.298, -30.0349], [-51.295, -30.141], [-51.2818, -30.2441], [-51.1573, -30.3643], [-51.1875, -30.4119], [-51.2466, -30.4676], [-51.2877, -30.5912], [-51.2831, -30.7516], [-51.3164, -30.7027], [-51.3591, -30.6745], [-51.3765, -30.8469], [-51.4591, -30.9128], [-51.4853, -30.9775], [-51.4637, -31.0526], [-51.5063, -31.1045], [-51.7169, -31.2437], [-51.9268, -31.3389], [-51.9725, -31.3838], [-51.9949, -31.4899], [-52.027, -31.599], [-52.1198, -31.6949], [-52.1936, -31.8855], [-52.1916, -31.9676], [-52.1671, -32.0885], [-52.1274, -32.1678], [-52.1902, -32.2208], [-52.2746, -32.3237], [-52.3417, -32.4397], [-52.3647, -32.5], [-53.493, -32.5], [-53.6017, -32.403], [-53.6536, -32.2987], [-53.7011, -32.1863], [-53.7466, -32.0975], [-53.7617, -32.0568], [-53.8061, -32.0399], [-53.8765, -31.9945], [-53.9206, -31.9523], [-53.9852, -31.9281], [-54.1004, -31.9016], [-54.2206, -31.8552], [-54.3699, -31.745], [-54.4777, -31.6228], [-54.5309, -31.542], [-54.5876, -31.4852], [-54.896, -31.3912], [-55.036, -31.279], [-55.0912, -31.314], [-55.1735, -31.2796], [-55.2546, -31.2256], [-55.279, -31.1842], [-55.3133, -31.1417], [-55.3455, -31.093], [-55.3661, -31.0462], [-55.4496, -30.9645], [-55.5573, -30.876], [-55.603, -30.8508], [-55.6271, -30.8581], [-55.6505, -30.8921], [-55.6652, -30.9249], [-55.706, -30.9466], [-55.7563, -30.9871], [-55.8078, -31.0367], [-55.8737, -31.0696], [-55.952, -31.0809], [-56.0047, -31.0792], [-56.0155, -31.0597], [-56.0185, -30.9919], [-55.999, -30.8372], [-56.0448, -30.7776], [-56.1059, -30.7138], [-56.1762, -30.6284], [-56.4072, -30.4475], [-56.7217, -30.1869], [-56.8327, -30.1072], [-56.9373, -30.1011], [-57.0327, -30.11], [-57.1205, -30.1444], [-57.1869, -30.2648], [-57.2145, -30.2834], [-57.3838, -30.2807], [-57.5523, -30.2612], [-57.6089, -30.1878], [-57.5639, -30.1399], [-57.4052, -30.0339], [-57.3175, -29.9395], [-57.3007, -29.8565], [-57.2247, -29.7821], [-57.0894, -29.7162], [-56.9386, -29.5948], [-56.7725, -29.4179], [-56.6715, -29.2873], [-56.6358, -29.203], [-56.5707, -29.1381], [-56.476, -29.0925], [-56.3933, -28.9973], [-56.3224, -28.8524], [-56.2255, -28.7372], [-56.1029, -28.6518], [-56.0342, -28.5809], [-56.0196, -28.5246], [-55.9849, -28.4886], [-55.9302, -28.4729], [-55.9037, -28.4433], [-55.9054, -28.3996], [-55.8905, -28.37], [-55.8589, -28.3542], [-55.8061, -28.3598], [-55.732, -28.3866], [-55.6873, -28.3816], [-55.672, -28.3449], [-55.6915, -28.3028], [-55.746, -28.2555], [-55.7255, -28.2041], [-55.5824, -28.121], [-55.4767, -28.0894], [-55.4098, -28.0378], [-55.3465, -27.956], [-55.2437, -27.8988], [-55.1015, -27.8668], [-55.0639, -27.8359], [-55.069, -27.7963], [-55.0399, -27.7678], [-54.9559, -27.7472], [-54.9102, -27.7086], [-54.9028, -27.652], [-54.8757, -27.5992], [-54.8291, -27.5506], [-54.7771, -27.5325], [-54.7197, -27.5449], [-54.6659, -27.5266], [-54.6154, -27.4771], [-54.5549, -27.4541], [-54.4843, -27.4573], [-54.4481, -27.4465], [-54.327, -27.4235], [-54.2602, -27.382], [-54.2052, -27.2896], [-54.1564, -27.2538], [-54.1138, -27.2747], [-54.0401, -27.2437], [-53.9354, -27.1611], [-53.9156, -27.1596], [-53.8382, -27.1211], [-53.7585, -26.9783], [-53.7173, -26.8828], [-53.7271, -26.8047], [-53.7533, -26.7486], [-53.7446, -26.6665], [-53.7182, -26.4432], [-53.7109, -26.3519], [-53.6686, -26.2882], [-53.6713, -26.2251], [-53.7469, -26.0837], [-53.8232, -25.9596], [-53.8642, -25.7488], [-53.8912, -25.6688], [-53.9548, -25.6477], [-54.0123, -25.5779], [-54.085, -25.5719], [-54.1192, -25.5452], [-54.1546, -25.523], [-54.2062, -25.5296], [-54.2501, -25.5704], [-54.3319, -25.5719], [-54.3834, -25.5887], [-54.4439, -25.625], [-54.5015, -25.6083], [-54.5378, -25.5765], [-54.6159, -25.5761], [-54.6105, -25.4327], [-54.4731, -25.2202], [-54.4362, -25.1213], [-54.4541, -25.0652], [-54.413, -24.8675], [-54.3129, -24.5281], [-54.281, -24.3061], [-54.3173, -24.2013], [-54.3183, -24.1281], [-54.2669, -24.0658], [-54.2418, -24.0473], [-54.3708, -23.9712], [-54.4402, -23.9018], [-54.5296, -23.8521], [-54.6255, -23.8125], [-54.6718, -23.829], [-54.7214, -23.8521], [-54.8173, -23.8885], [-54.9265, -23.9514], [-54.9827, -23.9745], [-55.0819, -23.9977], [-55.1943, -24.0175], [-55.2869, -24.0043], [-55.3663, -23.991], [-55.4159, -23.9514], [-55.4424, -23.8653], [-55.4424, -23.7926], [-55.4589, -23.6867], [-55.5185, -23.6272], [-55.5383, -23.581], [-55.5416, -23.5247], [-55.535, -23.4619], [-55.5185, -23.4156], [-55.5284, -23.3594], [-55.5548, -23.3196], [-55.5482, -23.2502], [-55.5614, -23.1543], [-55.6011, -23.0947], [-55.621, -23.0253], [-55.621, -22.9559], [-55.6507, -22.8864], [-55.6541, -22.8104], [-55.6276, -22.7409], [-55.6177, -22.6715], [-55.6474, -22.6219], [-55.7037, -22.5921], [-55.7466, -22.5127], [-55.7533, -22.4102], [-55.7996, -22.3539], [-55.8492, -22.3076], [-55.9054, -22.3076], [-55.9914, -22.2812], [-56.0675, -22.2845], [-56.1898, -22.2812], [-56.246, -22.2646], [-56.2758, -22.2282], [-56.3519, -22.1786], [-56.3949, -22.0927], [-56.4478, -22.0762], [-56.5238, -22.1025], [-56.5503, -22.1356], [-56.5801, -22.1819], [-56.633, -22.2349], [-56.7024, -22.2315], [-56.7752, -22.2613], [-56.8447, -22.2646], [-56.9373, -22.2713], [-57.0299, -22.2448], [-57.1423, -22.215], [-57.2382, -22.1952], [-57.3309, -22.215], [-57.3937, -22.1984], [-57.4764, -22.1886], [-57.5689, -22.1819], [-57.6417, -22.129], [-57.7211, -22.0992], [-57.7641, -22.1092], [-57.8203, -22.1423], [-57.8798, -22.1356], [-57.9559, -22.1092], [-57.9857, -22.0464], [-57.9791, -22.0066], [-57.9625, -21.967], [-57.9328, -21.9107], [-57.9493, -21.8512], [-57.9427, -21.7983], [-57.9294, -21.752], [-57.9162, -21.6991], [-57.9262, -21.6495], [-57.9294, -21.5966], [-57.9361, -21.547], [-57.946, -21.494], [-57.9063, -21.418], [-57.8732, -21.3551], [-57.8931, -21.3022], [-57.8865, -21.2658], [-57.86, -21.2063], [-57.827, -21.1336], [-57.8302, -20.9979], [-57.86, -20.9186], [-57.8922, -20.8971], [-57.9005, -20.873], [-57.8848, -20.8417], [-57.9019, -20.8094], [-57.9085, -20.7764], [-57.8914, -20.7475], [-57.9151, -20.6903], [-57.9625, -20.6738], [-57.9791, -20.6573], [-57.9956, -20.5944], [-58.0088, -20.5217], [-58.0022, -20.4654], [-58.0254, -20.4158], [-58.0584, -20.3861], [-58.0915, -20.3332], [-58.1246, -20.2935], [-58.1378, -20.2373], [-58.1598, -20.1646], [-58.0938, -20.1511], [-58.0676, -20.1104], [-58.0211, -20.0552], [-57.9602, -20.0407], [-57.8876, -20.0204], [-57.8607, -19.9796], [-58.0299, -19.8327], [-58.1315, -19.7445], [-58.072, -19.6253], [-58.0095, -19.5], [-47.5, -19.5]]], [[[-48.5844, -26.4016], [-48.6031, -26.4138], [-48.6658, -26.2896], [-48.5397, -26.1703], [-48.4976, -26.2188], [-48.5311, -26.3132], [-48.5681, -26.3797], [-48.5844, -26.4016]]], [[[-48.4859, -27.767], [-48.5546, -27.8122], [-48.5422, -27.5748], [-48.5052, -27.4955], [-48.4647, -27.4363], [-48.4149, -27.3996], [-48.3779, -27.4515], [-48.4096, -27.5663], [-48.4968, -27.707], [-48.4859, -27.767]]]]}}, {"type": "Feature", "properties": {"nombre": "Bolivia"}, "geometry": {"type": "MultiPolygon", "coordinates": [[[[-58.0095, -19.5], [-58.072, -19.6253], [-58.1315, -19.7445], [-58.0299, -19.8327], [-57.8607, -19.9796], [-57.8876, -20.0204], [-57.9602, -20.0407], [-58.0211, -20.0552], [-58.0676, -20.1104], [-58.0938, -20.1511], [-58.1598, -20.1646], [-58.1399, -19.9988], [-58.1601, -19.8549], [-58.1802, -19.8179], [-58.4742, -19.6461], [-58.7244, -19.5], [-58.0095, -19.5]]]]}}, {"type": "Feature", "properties": {"nombre": "Argentina"}, "geometry": {"type": "MultiPolygon", "coordinates": [[[[-57.6089, -30.1878], [-57.6458, -30.227], [-57.6509, -30.295], [-57.7127, -30.3845], [-57.8312, -30.4952], [-57.8725, -30.591], [-57.8186, -30.712], [-57.8106, -30.8586], [-57.8341, -30.9175], [-57.8863, -30.9374], [-57.8983, -30.9752], [-57.8701, -31.0311], [-57.8684, -31.1044], [-57.8934, -31.1953], [-57.9483, -31.2994], [-58.0334, -31.4166], [-58.0539, -31.4949], [-58.0097, -31.5344], [-57.988, -31.5762], [-57.9889, -31.6206], [-58.007, -31.685], [-58.0423, -31.7692], [-58.0958, -31.8318], [-58.1675, -31.8727], [-58.189, -31.9242], [-58.1604, -31.9865], [-58.1563, -32.0516], [-58.177, -32.119], [-58.1648, -32.1849], [-58.1197, -32.2489], [-58.123, -32.3219], [-58.2012, -32.4717], [-58.2069, -32.5], [-60.5, -32.5], [-60.5, -23.9647], [-60.2622, -24.014], [-60.1103, -24.0092], [-59.8925, -24.0936], [-59.6086, -24.2668], [-59.4354, -24.387], [-59.3729, -24.4539], [-59.1873, -24.5623], [-58.724, -24.7866], [-58.5196, -24.8429], [-58.4228, -24.8941], [-58.3654, -24.9593], [-58.3087, -24.9791], [-58.2528, -24.9538], [-58.1365, -24.9771], [-57.9598, -25.0492], [-57.8217, -25.1364], [-57.6439, -25.3284], [-57.5872, -25.4051], [-57.5631, -25.4737], [-57.5717, -25.5342], [-57.6258, -25.5987], [-57.7255, -25.6672], [-57.7548, -25.6971], [-57.7571, -25.726], [-57.7825, -25.7837], [-57.8652, -25.9069], [-57.8862, -25.9643], [-57.8906, -26.0065], [-57.9431, -26.0529], [-58.0824, -26.1386], [-58.1111, -26.1802], [-58.1181, -26.2249], [-58.1356, -26.2515], [-58.1547, -26.2626], [-58.1815, -26.3074], [-58.203, -26.3814], [-58.2052, -26.4766], [-58.1879, -26.5926], [-58.1913, -26.63], [-58.2221, -26.65], [-58.2394, -26.6769], [-58.2456, -26.7311], [-58.2717, -26.7707], [-58.3177, -26.7959], [-58.3347, -26.8249], [-58.3226, -26.8576], [-58.3564, -26.89], [-58.4363, -26.922], [-58.4853, -26.9685], [-58.5032, -27.0295], [-58.5477, -27.084], [-58.6186, -27.1321], [-58.6417, -27.1961], [-58.6048, -27.3144], [-58.1683, -27.2734], [-57.8122, -27.3166], [-57.3913, -27.4305], [-57.1118, -27.4701], [-56.974, -27.4357], [-56.8717, -27.4406], [-56.8052, -27.4847], [-56.7157, -27.4937], [-56.6034, -27.4679], [-56.5105, -27.4879], [-56.4372, -27.5538], [-56.3705, -27.5374], [-56.3105, -27.4388], [-56.2417, -27.3668], [-56.1641, -27.3215], [-56.0673, -27.3077], [-55.9515, -27.3257], [-55.859, -27.3619], [-55.79, -27.4164], [-55.7146, -27.4148], [-55.6329, -27.3571], [-55.5938, -27.2881], [-55.5973, -27.2076], [-55.5649, -27.15], [-55.4967, -27.1153], [-55.4506, -27.0684], [-55.4267, -27.0093], [-55.3458, -26.9731], [-55.208, -26.9602], [-55.1359, -26.9312], [-55.1296, -26.886], [-55.0889, -26.8445], [-55.0136, -26.8066], [-54.9622, -26.7594], [-54.9345, -26.7025], [-54.8889, -26.6668], [-54.8255, -26.6522], [-54.7551, -26.5329], [-54.6777, -26.3088], [-54.6319, -26.0058], [-54.6159, -25.5761], [-54.5378, -25.5765], [-54.5015, -25.6083], [-54.4439, -25.625], [-54.3834, -25.5887], [-54.3319, -25.5719], [-54.2501, -25.5704], [-54.2062, -25.5296], [-54.1546, -25.523], [-54.1192, -25.5452], [-54.085, -25.5719], [-54.0123, -25.5779], [-53.9548, -25.6477], [-53.8912, -25.6688], [-53.8642, -25.7488], [-53.8232, -25.9596], [-53.7469, -26.0837], [-53.6713, -26.2251], [-53.6686, -26.2882], [-53.7109, -26.3519], [-53.7182, -26.4432], [-53.7446, -26.6665], [-53.7533, -26.7486], [-53.7271, -26.8047], [-53.7173, -26.8828], [-53.7585, -26.9783], [-53.8382, -27.1211], [-53.9156, -27.1596], [-53.9354, -27.1611], [-54.0401, -27.2437], [-54.1138, -27.2747], [-54.1564, -27.2538], [-54.2052, -27.2896], [-54.2602, -27.382], [-54.327, -27.4235], [-54.4481, -27.4465], [-54.4843, -27.4573], [-54.5549, -27.4541], [-54.6154, -27.4771], [-54.6659, -27.5266], [-54.7197, -27.5449], [-54.7771, -27.5325], [-54.8291, -27.5506], [-54.8757, -27.5992], [-54.9028, -27.652], [-54.9102, -27.7086], [-54.9559, -27.7472], [-55.0399, -27.7678], [-55.069, -27.7963], [-55.0639, -27.8359], [-55.1015, -27.8668], [-55.2437, -27.8988], [-55.3465, -27.956], [-55.4098, -28.0378], [-55.4767, -28.0894], [-55.5824, -28.121], [-55.7255, -28.2041], [-55.746, -28.2555], [-55.6915, -28.3028], [-55.672, -28.3449], [-55.6873, -28.3816], [-55.732, -28.3866], [-55.8061, -28.3598], [-55.8589, -28.3542], [-55.8905, -28.37], [-55.9054, -28.3996], [-55.9037, -28.4433], [-55.9302, -28.4729], [-55.9849, -28.4886], [-56.0196, -28.5246], [-56.0342, -28.5809], [-56.1029, -28.6518], [-56.2255, -28.7372], [-56.3224, -28.8524], [-56.3933, -28.9973], [-56.476, -29.0925], [-56.5707, -29.1381], [-56.6358, -29.203], [-56.6715, -29.2873], [-56.7725, -29.4179], [-56.9386, -29.5948], [-57.0894, -29.7162], [-57.2247, -29.7821], [-57.3007, -29.8565], [-57.3175, -29.9395], [-57.4052, -30.0339], [-57.5639, -30.1399], [-57.6089, -30.1878]]]]}}]}