{"type": "FeatureCollection", "features": [{"type": "Feature", "properties": {"nombre": "Zimbabue", "rank": 3}, "geometry": {"type": "Point", "coordinates": [29.93, -18.91]}}, {"type": "Feature", "properties": {"nombre": "Zambia", "rank": 3}, "geometry": {"type": "Point", "coordinates": [26.4, -14.66]}}, {"type": "Feature", "properties": {"nombre": "Yemen", "rank": 3}, "geometry": {"type": "Point", "coordinates": [45.87, 15.33]}}, {"type": "Feature", "properties": {"nombre": "Vietnam", "rank": 2}, "geometry": {"type": "Point", "coordinates": [105.39, 21.72]}}, {"type": "Feature", "properties": {"nombre": "Venezuela", "rank": 3}, "geometry": {"type": "Point", "coordinates": [-64.6, 7.18]}}, {"type": "Feature", "properties": {"nombre": "Ciudad del Vaticano", "rank": 6}, "geometry": {"type": "Point", "coordinates": [12.45, 41.9]}}, {"type": "Feature", "properties": {"nombre": "Vanuatu", "rank": 4}, "geometry": {"type": "Point", "coordinates": [166.91, -15.37]}}, {"type": "Feature", "properties": {"nombre": "Uzbekist\u00e1n", "rank": 3}, "geometry": {"type": "Point", "coordinates": [64.01, 41.69]}}, {"type": "Feature", "properties": {"nombre": "Uruguay", "rank": 4}, "geometry": {"type": "Point", "coordinates": [-55.97, -32.96]}}, {"type": "Feature", "properties": {"nombre": "Estados Federados de Micronesia", "rank": 6}, "geometry": {"type": "Point", "coordinates": [158.23, 6.89]}}, {"type": "Feature", "properties": {"nombre": "Islas Marshall", "rank": 6}, "geometry": {"type": "Point", "coordinates": [171.19, 7.08]}}, {"type": "Feature", "properties": {"nombre": "Islas Marianas del Norte", "rank": 6}, "geometry": {"type": "Point", "coordinates": [145.73, 15.19]}}, {"type": "Feature", "properties": {"nombre": "Islas V\u00edrgenes de los Estados Unidos", "rank": 6}, "geometry": {"type": "Point", "coordinates": [-64.78, 17.75]}}, {"type": "Feature", "properties": {"nombre": "Guam", "rank": 6}, "geometry": {"type": "Point", "coordinates": [144.7, 13.35]}}, {"type": "Feature", "properties": {"nombre": "Samoa Estadounidense", "rank": 4}, "geometry": {"type": "Point", "coordinates": [-170.75, -14.33]}}, {"type": "Feature", "properties": {"nombre": "Puerto Rico", "rank": 5}, "geometry": {"type": "Point", "coordinates": [-66.48, 18.23]}}, {"type": "Feature", "properties": {"nombre": "Estados Unidos", "rank": 2}, "geometry": {"type": "Point", "coordinates": [-97.48, 39.54]}}, {"type": "Feature", "properties": {"nombre": "Islas Georgias del Sur y Sandwich del Sur", "rank": 4}, "geometry": {"type": "Point", "coordinates": [-31.06, -55.68]}}, {"type": "Feature", "properties": {"nombre": "Territorio Brit\u00e1nico del Oc\u00e9ano \u00cdndico", "rank": 5}, "geometry": {"type": "Point", "coordinates": [71.35, -6.19]}}, {"type": "Feature", "properties": {"nombre": "Isla Santa Elena", "rank": 6}, "geometry": {"type": "Point", "coordinates": [-5.71, -15.95]}}, {"type": "Feature", "properties": {"nombre": "Islas Pitcairn", "rank": 4}, "geometry": {"type": "Point", "coordinates": [-128.32, -24.36]}}, {"type": "Feature", "properties": {"nombre": "Anguila", "rank": 6}, "geometry": {"type": "Point", "coordinates": [-63.03, 18.24]}}, {"type": "Feature", "properties": {"nombre": "Islas Malvinas", "rank": 5}, "geometry": {"type": "Point", "coordinates": [-58.74, -51.61]}}, {"type": "Feature", "properties": {"nombre": "Islas Caim\u00e1n", "rank": 5}, "geometry": {"type": "Point", "coordinates": [-81.24, 19.32]}}, {"type": "Feature", "properties": {"nombre": "Bermudas", "rank": 6}, "geometry": {"type": "Point", "coordinates": [-64.76, 32.3]}}, {"type": "Feature", "properties": {"nombre": "Islas V\u00edrgenes Brit\u00e1nicas", "rank": 6}, "geometry": {"type": "Point", "coordinates": [-64.64, 18.43]}}, {"type": "Feature", "properties": {"nombre": "Islas Turcas y Caicos", "rank": 6}, "geometry": {"type": "Point", "coordinates": [-71.75, 21.82]}}, {"type": "Feature", "properties": {"nombre": "Montserrat", "rank": 6}, "geometry": {"type": "Point", "coordinates": [-62.19, 16.74]}}, {"type": "Feature", "properties": {"nombre": "Jersey", "rank": 6}, "geometry": {"type": "Point", "coordinates": [-2.09, 49.22]}}, {"type": "Feature", "properties": {"nombre": "Guernsey", "rank": 6}, "geometry": {"type": "Point", "coordinates": [-2.56, 49.46]}}, {"type": "Feature", "properties": {"nombre": "Isla de Man", "rank": 6}, "geometry": {"type": "Point", "coordinates": [-4.53, 54.22]}}, {"type": "Feature", "properties": {"nombre": "Reino Unido", "rank": 2}, "geometry": {"type": "Point", "coordinates": [-2.12, 54.4]}}, {"type": "Feature", "properties": {"nombre": "Emiratos \u00c1rabes Unidos", "rank": 4}, "geometry": {"type": "Point", "coordinates": [54.55, 23.47]}}, {"type": "Feature", "properties": {"nombre": "Ucrania", "rank": 3}, "geometry": {"type": "Point", "coordinates": [32.14, 49.72]}}, {"type": "Feature", "properties": {"nombre": "Uganda", "rank": 3}, "geometry": {"type": "Point", "coordinates": [32.95, 1.97]}}, {"type": "Feature", "properties": {"nombre": "Turkmenist\u00e1n", "rank": 4}, "geometry": {"type": "Point", "coordinates": [58.68, 39.86]}}, {"type": "Feature", "properties": {"nombre": "Turqu\u00eda", "rank": 2}, "geometry": {"type": "Point", "coordinates": [34.51, 39.35]}}, {"type": "Feature", "properties": {"nombre": "T\u00fanez", "rank": 3}, "geometry": {"type": "Point", "coordinates": [9.01, 33.69]}}, {"type": "Feature", "properties": {"nombre": "Trinidad y Tobago", "rank": 5}, "geometry": {"type": "Point", "coordinates": [-60.92, 11.0]}}, {"type": "Feature", "properties": {"nombre": "Tonga", "rank": 4}, "geometry": {"type": "Point", "coordinates": [-175.16, -21.21]}}, {"type": "Feature", "properties": {"nombre": "Togo", "rank": 6}, "geometry": {"type": "Point", "coordinates": [1.06, 8.81]}}, {"type": "Feature", "properties": {"nombre": "Timor Oriental", "rank": 5}, "geometry": {"type": "Point", "coordinates": [125.85, -8.8]}}, {"type": "Feature", "properties": {"nombre": "Tailandia", "rank": 3}, "geometry": {"type": "Point", "coordinates": [101.07, 15.46]}}, {"type": "Feature", "properties": {"nombre": "Tanzania", "rank": 3}, "geometry": {"type": "Point", "coordinates": [34.96, -6.05]}}, {"type": "Feature", "properties": {"nombre": "Tayikist\u00e1n", "rank": 4}, "geometry": {"type": "Point", "coordinates": [72.59, 38.2]}}, {"type": "Feature", "properties": {"nombre": "Rep\u00fablica de China", "rank": 3}, "geometry": {"type": "Point", "coordinates": [120.87, 23.65]}}, {"type": "Feature", "properties": {"nombre": "Siria", "rank": 3}, "geometry": {"type": "Point", "coordinates": [38.28, 35.01]}}, {"type": "Feature", "properties": {"nombre": "Suiza", "rank": 4}, "geometry": {"type": "Point", "coordinates": [7.46, 46.72]}}, {"type": "Feature", "properties": {"nombre": "Suecia", "rank": 3}, "geometry": {"type": "Point", "coordinates": [19.02, 65.86]}}, {"type": "Feature", "properties": {"nombre": "Suazilandia", "rank": 4}, "geometry": {"type": "Point", "coordinates": [31.47, -26.53]}}, {"type": "Feature", "properties": {"nombre": "Surinam", "rank": 4}, "geometry": {"type": "Point", "coordinates": [-55.91, 4.14]}}, {"type": "Feature", "properties": {"nombre": "Sud\u00e1n del Sur", "rank": 3}, "geometry": {"type": "Point", "coordinates": [30.39, 7.23]}}, {"type": "Feature", "properties": {"nombre": "Sud\u00e1n", "rank": 3}, "geometry": {"type": "Point", "coordinates": [29.26, 16.33]}}, {"type": "Feature", "properties": {"nombre": "Sri Lanka", "rank": 3}, "geometry": {"type": "Point", "coordinates": [80.7, 7.58]}}, {"type": "Feature", "properties": {"nombre": "Espa\u00f1a", "rank": 2}, "geometry": {"type": "Point", "coordinates": [-3.46, 40.09]}}, {"type": "Feature", "properties": {"nombre": "Corea del Sur", "rank": 2}, "geometry": {"type": "Point", "coordinates": [128.13, 36.38]}}, {"type": "Feature", "properties": {"nombre": "Sud\u00e1frica", "rank": 2}, "geometry": {"type": "Point", "coordinates": [23.67, -29.71]}}, {"type": "Feature", "properties": {"nombre": "Somalia", "rank": 6}, "geometry": {"type": "Point", "coordinates": [45.19, 3.57]}}, {"type": "Feature", "properties": {"nombre": "Somalilandia", "rank": 5}, "geometry": {"type": "Point", "coordinates": [46.73, 9.44]}}, {"type": "Feature", "properties": {"nombre": "Islas Salom\u00f3n", "rank": 3}, "geometry": {"type": "Point", "coordinates": [159.17, -8.03]}}, {"type": "Feature", "properties": {"nombre": "Eslovaquia", "rank": 6}, "geometry": {"type": "Point", "coordinates": [19.05, 48.73]}}, {"type": "Feature", "properties": {"nombre": "Eslovenia", "rank": 6}, "geometry": {"type": "Point", "coordinates": [14.92, 46.06]}}, {"type": "Feature", "properties": {"nombre": "Singapur", "rank": 6}, "geometry": {"type": "Point", "coordinates": [103.82, 1.37]}}, {"type": "Feature", "properties": {"nombre": "Sierra Leona", "rank": 4}, "geometry": {"type": "Point", "coordinates": [-11.76, 8.62]}}, {"type": "Feature", "properties": {"nombre": "Seychelles", "rank": 6}, "geometry": {"type": "Point", "coordinates": [55.48, -4.68]}}, {"type": "Feature", "properties": {"nombre": "Serbia", "rank": 5}, "geometry": {"type": "Point", "coordinates": [20.79, 44.19]}}, {"type": "Feature", "properties": {"nombre": "Senegal", "rank": 3}, "geometry": {"type": "Point", "coordinates": [-14.78, 15.14]}}, {"type": "Feature", "properties": {"nombre": "Arabia Saudita", "rank": 2}, "geometry": {"type": "Point", "coordinates": [44.7, 23.81]}}, {"type": "Feature", "properties": {"nombre": "Santo Tom\u00e9 y Pr\u00edncipe", "rank": 6}, "geometry": {"type": "Point", "coordinates": [7.02, 0.97]}}, {"type": "Feature", "properties": {"nombre": "San Marino", "rank": 6}, "geometry": {"type": "Point", "coordinates": [12.44, 43.93]}}, {"type": "Feature", "properties": {"nombre": "Samoa", "rank": 4}, "geometry": {"type": "Point", "coordinates": [-172.44, -13.64]}}, {"type": "Feature", "properties": {"nombre": "San Vicente y las Granadinas", "rank": 6}, "geometry": {"type": "Point", "coordinates": [-61.34, 13.09]}}, {"type": "Feature", "properties": {"nombre": "Santa Luc\u00eda", "rank": 6}, "geometry": {"type": "Point", "coordinates": [-60.98, 13.89]}}, {"type": "Feature", "properties": {"nombre": "San Crist\u00f3bal y Nieves", "rank": 6}, "geometry": {"type": "Point", "coordinates": [-62.76, 17.34]}}, {"type": "Feature", "properties": {"nombre": "Ruanda", "rank": 3}, "geometry": {"type": "Point", "coordinates": [30.1, -1.9]}}, {"type": "Feature", "properties": {"nombre": "Rusia", "rank": 2}, "geometry": {"type": "Point", "coordinates": [44.69, 58.25]}}, {"type": "Feature", "properties": {"nombre": "Rumania", "rank": 3}, "geometry": {"type": "Point", "coordinates": [24.97, 45.73]}}, {"type": "Feature", "properties": {"nombre": "Catar", "rank": 5}, "geometry": {"type": "Point", "coordinates": [51.14, 25.24]}}, {"type": "Feature", "properties": {"nombre": "Portugal", "rank": 2}, "geometry": {"type": "Point", "coordinates": [-8.27, 39.61]}}, {"type": "Feature", "properties": {"nombre": "Polonia", "rank": 3}, "geometry": {"type": "Point", "coordinates": [19.49, 51.99]}}, {"type": "Feature", "properties": {"nombre": "Filipinas", "rank": 2}, "geometry": {"type": "Point", "coordinates": [122.47, 11.2]}}, {"type": "Feature", "properties": {"nombre": "Per\u00fa", "rank": 2}, "geometry": {"type": "Point", "coordinates": [-72.9, -12.98]}}, {"type": "Feature", "properties": {"nombre": "Paraguay", "rank": 4}, "geometry": {"type": "Point", "coordinates": [-60.15, -21.67]}}, {"type": "Feature", "properties": {"nombre": "Pap\u00faa Nueva Guinea", "rank": 2}, "geometry": {"type": "Point", "coordinates": [143.91, -5.7]}}, {"type": "Feature", "properties": {"nombre": "Panam\u00e1", "rank": 4}, "geometry": {"type": "Point", "coordinates": [-80.35, 8.72]}}, {"type": "Feature", "properties": {"nombre": "Palaos", "rank": 6}, "geometry": {"type": "Point", "coordinates": [134.58, 7.52]}}, {"type": "Feature", "properties": {"nombre": "Pakist\u00e1n", "rank": 2}, "geometry": {"type": "Point", "coordinates": [68.55, 29.33]}}, {"type": "Feature", "properties": {"nombre": "Om\u00e1n", "rank": 4}, "geometry": {"type": "Point", "coordinates": [57.34, 22.12]}}, {"type": "Feature", "properties": {"nombre": "Noruega", "rank": 3}, "geometry": {"type": "Point", "coordinates": [9.68, 61.36]}}, {"type": "Feature", "properties": {"nombre": "Corea del Norte", "rank": 3}, "geometry": {"type": "Point", "coordinates": [126.44, 39.89]}}, {"type": "Feature", "properties": {"nombre": "Nigeria", "rank": 2}, "geometry": {"type": "Point", "coordinates": [7.5, 9.44]}}, {"type": "Feature", "properties": {"nombre": "N\u00edger", "rank": 3}, "geometry": {"type": "Point", "coordinates": [9.5, 17.45]}}, {"type": "Feature", "properties": {"nombre": "Nicaragua", "rank": 5}, "geometry": {"type": "Point", "coordinates": [-85.07, 12.67]}}, {"type": "Feature", "properties": {"nombre": "Nueva Zelanda", "rank": 2}, "geometry": {"type": "Point", "coordinates": [172.79, -39.76]}}, {"type": "Feature", "properties": {"nombre": "Niue", "rank": 4}, "geometry": {"type": "Point", "coordinates": [-169.86, -19.05]}}, {"type": "Feature", "properties": {"nombre": "Islas Cook", "rank": 4}, "geometry": {"type": "Point", "coordinates": [-159.79, -21.22]}}, {"type": "Feature", "properties": {"nombre": "Pa\u00edses Bajos", "rank": 5}, "geometry": {"type": "Point", "coordinates": [5.61, 52.42]}}, {"type": "Feature", "properties": {"nombre": "Aruba", "rank": 5}, "geometry": {"type": "Point", "coordinates": [-69.97, 12.52]}}, {"type": "Feature", "properties": {"nombre": "Curazao", "rank": 5}, "geometry": {"type": "Point", "coordinates": [-68.92, 12.15]}}, {"type": "Feature", "properties": {"nombre": "Nepal", "rank": 3}, "geometry": {"type": "Point", "coordinates": [83.64, 28.3]}}, {"type": "Feature", "properties": {"nombre": "Nauru", "rank": 6}, "geometry": {"type": "Point", "coordinates": [166.93, -0.52]}}, {"type": "Feature", "properties": {"nombre": "Namibia", "rank": 3}, "geometry": {"type": "Point", "coordinates": [17.11, -20.58]}}, {"type": "Feature", "properties": {"nombre": "Mozambique", "rank": 3}, "geometry": {"type": "Point", "coordinates": [37.84, -13.94]}}, {"type": "Feature", "properties": {"nombre": "Marruecos", "rank": 3}, "geometry": {"type": "Point", "coordinates": [-7.19, 31.65]}}, {"type": "Feature", "properties": {"nombre": "Sahara Occidental", "rank": 7}, "geometry": {"type": "Point", "coordinates": [-12.63, 23.97]}}, {"type": "Feature", "properties": {"nombre": "Montenegro", "rank": 6}, "geometry": {"type": "Point", "coordinates": [19.14, 42.8]}}, {"type": "Feature", "properties": {"nombre": "Mongolia", "rank": 3}, "geometry": {"type": "Point", "coordinates": [104.15, 46.0]}}, {"type": "Feature", "properties": {"nombre": "Moldavia", "rank": 6}, "geometry": {"type": "Point", "coordinates": [28.49, 47.43]}}, {"type": "Feature", "properties": {"nombre": "M\u00f3naco", "rank": 6}, "geometry": {"type": "Point", "coordinates": [7.4, 43.74]}}, {"type": "Feature", "properties": {"nombre": "M\u00e9xico", "rank": 2}, "geometry": {"type": "Point", "coordinates": [-102.29, 23.92]}}, {"type": "Feature", "properties": {"nombre": "Mauricio", "rank": 5}, "geometry": {"type": "Point", "coordinates": [57.57, -20.3]}}, {"type": "Feature", "properties": {"nombre": "Mauritania", "rank": 3}, "geometry": {"type": "Point", "coordinates": [-9.74, 19.59]}}, {"type": "Feature", "properties": {"nombre": "Malta", "rank": 5}, "geometry": {"type": "Point", "coordinates": [14.43, 35.89]}}, {"type": "Feature", "properties": {"nombre": "Mal\u00ed", "rank": 3}, "geometry": {"type": "Point", "coordinates": [-2.04, 18.69]}}, {"type": "Feature", "properties": {"nombre": "Maldivas", "rank": 5}, "geometry": {"type": "Point", "coordinates": [73.51, 4.17]}}, {"type": "Feature", "properties": {"nombre": "Malasia", "rank": 3}, "geometry": {"type": "Point", "coordinates": [113.84, 2.53]}}, {"type": "Feature", "properties": {"nombre": "Malaui", "rank": 6}, "geometry": {"type": "Point", "coordinates": [33.61, -13.39]}}, {"type": "Feature", "properties": {"nombre": "Madagascar", "rank": 3}, "geometry": {"type": "Point", "coordinates": [46.7, -18.63]}}, {"type": "Feature", "properties": {"nombre": "Macedonia del Norte", "rank": 6}, "geometry": {"type": "Point", "coordinates": [21.56, 41.56]}}, {"type": "Feature", "properties": {"nombre": "Luxemburgo", "rank": 6}, "geometry": {"type": "Point", "coordinates": [6.08, 49.73]}}, {"type": "Feature", "properties": {"nombre": "Lituania", "rank": 5}, "geometry": {"type": "Point", "coordinates": [24.09, 55.1]}}, {"type": "Feature", "properties": {"nombre": "Liechtenstein", "rank": 6}, "geometry": {"type": "Point", "coordinates": [9.56, 47.11]}}, {"type": "Feature", "properties": {"nombre": "Libia", "rank": 3}, "geometry": {"type": "Point", "coordinates": [18.01, 26.64]}}, {"type": "Feature", "properties": {"nombre": "Liberia", "rank": 4}, "geometry": {"type": "Point", "coordinates": [-9.46, 6.45]}}, {"type": "Feature", "properties": {"nombre": "Lesoto", "rank": 6}, "geometry": {"type": "Point", "coordinates": [28.25, -29.48]}}, {"type": "Feature", "properties": {"nombre": "L\u00edbano", "rank": 5}, "geometry": {"type": "Point", "coordinates": [35.99, 34.13]}}, {"type": "Feature", "properties": {"nombre": "Letonia", "rank": 5}, "geometry": {"type": "Point", "coordinates": [25.46, 57.07]}}, {"type": "Feature", "properties": {"nombre": "Laos", "rank": 4}, "geometry": {"type": "Point", "coordinates": [102.53, 19.43]}}, {"type": "Feature", "properties": {"nombre": "Kirguist\u00e1n", "rank": 4}, "geometry": {"type": "Point", "coordinates": [74.53, 41.67]}}, {"type": "Feature", "properties": {"nombre": "Kuwait", "rank": 6}, "geometry": {"type": "Point", "coordinates": [47.31, 29.41]}}, {"type": "Feature", "properties": {"nombre": "Kosovo", "rank": 6}, "geometry": {"type": "Point", "coordinates": [20.86, 42.59]}}, {"type": "Feature", "properties": {"nombre": "Kiribati", "rank": 6}, "geometry": {"type": "Point", "coordinates": [-157.38, 1.82]}}, {"type": "Feature", "properties": {"nombre": "Kenia", "rank": 2}, "geometry": {"type": "Point", "coordinates": [37.91, 0.55]}}, {"type": "Feature", "properties": {"nombre": "Kazajist\u00e1n", "rank": 3}, "geometry": {"type": "Point", "coordinates": [68.69, 49.05]}}, {"type": "Feature", "properties": {"nombre": "Jordania", "rank": 4}, "geometry": {"type": "Point", "coordinates": [36.38, 30.81]}}, {"type": "Feature", "properties": {"nombre": "Jap\u00f3n", "rank": 2}, "geometry": {"type": "Point", "coordinates": [138.44, 36.14]}}, {"type": "Feature", "properties": {"nombre": "Jamaica", "rank": 4}, "geometry": {"type": "Point", "coordinates": [-77.32, 18.14]}}, {"type": "Feature", "properties": {"nombre": "Italia", "rank": 2}, "geometry": {"type": "Point", "coordinates": [11.08, 44.73]}}, {"type": "Feature", "properties": {"nombre": "Israel", "rank": 4}, "geometry": {"type": "Point", "coordinates": [34.85, 30.91]}}, {"type": "Feature", "properties": {"nombre": "Palestina", "rank": 5}, "geometry": {"type": "Point", "coordinates": [35.29, 32.05]}}, {"type": "Feature", "properties": {"nombre": "Irlanda", "rank": 3}, "geometry": {"type": "Point", "coordinates": [-7.8, 53.08]}}, {"type": "Feature", "properties": {"nombre": "Irak", "rank": 3}, "geometry": {"type": "Point", "coordinates": [43.26, 33.09]}}, {"type": "Feature", "properties": {"nombre": "Ir\u00e1n", "rank": 2}, "geometry": {"type": "Point", "coordinates": [54.93, 32.17]}}, {"type": "Feature", "properties": {"nombre": "Indonesia", "rank": 2}, "geometry": {"type": "Point", "coordinates": [101.89, -0.95]}}, {"type": "Feature", "properties": {"nombre": "India", "rank": 2}, "geometry": {"type": "Point", "coordinates": [79.36, 22.69]}}, {"type": "Feature", "properties": {"nombre": "Islandia", "rank": 3}, "geometry": {"type": "Point", "coordinates": [-18.67, 64.78]}}, {"type": "Feature", "properties": {"nombre": "Hungr\u00eda", "rank": 5}, "geometry": {"type": "Point", "coordinates": [19.45, 47.09]}}, {"type": "Feature", "properties": {"nombre": "Honduras", "rank": 5}, "geometry": {"type": "Point", "coordinates": [-86.89, 14.79]}}, {"type": "Feature", "properties": {"nombre": "Hait\u00ed", "rank": 5}, "geometry": {"type": "Point", "coordinates": [-72.22, 19.26]}}, {"type": "Feature", "properties": {"nombre": "Guyana", "rank": 4}, "geometry": {"type": "Point", "coordinates": [-58.94, 5.12]}}, {"type": "Feature", "properties": {"nombre": "Guinea-Bis\u00e1u", "rank": 6}, "geometry": {"type": "Point", "coordinates": [-14.52, 12.16]}}, {"type": "Feature", "properties": {"nombre": "Guinea", "rank": 3}, "geometry": {"type": "Point", "coordinates": [-10.02, 10.62]}}, {"type": "Feature", "properties": {"nombre": "Guatemala", "rank": 3}, "geometry": {"type": "Point", "coordinates": [-90.5, 14.98]}}, {"type": "Feature", "properties": {"nombre": "Granada", "rank": 6}, "geometry": {"type": "Point", "coordinates": [-61.68, 12.11]}}, {"type": "Feature", "properties": {"nombre": "Grecia", "rank": 3}, "geometry": {"type": "Point", "coordinates": [21.73, 39.49]}}, {"type": "Feature", "properties": {"nombre": "Ghana", "rank": 3}, "geometry": {"type": "Point", "coordinates": [-1.04, 7.72]}}, {"type": "Feature", "properties": {"nombre": "Alemania", "rank": 2}, "geometry": {"type": "Point", "coordinates": [9.68, 50.96]}}, {"type": "Feature", "properties": {"nombre": "Georgia", "rank": 5}, "geometry": {"type": "Point", "coordinates": [43.74, 41.87]}}, {"type": "Feature", "properties": {"nombre": "Gambia", "rank": 6}, "geometry": {"type": "Point", "coordinates": [-15.0, 13.64]}}, {"type": "Feature", "properties": {"nombre": "Gab\u00f3n", "rank": 4}, "geometry": {"type": "Point", "coordinates": [11.84, -0.44]}}, {"type": "Feature", "properties": {"nombre": "Francia", "rank": 2}, "geometry": {"type": "Point", "coordinates": [2.55, 46.7]}}, {"type": "Feature", "properties": {"nombre": "San Pedro y Miquel\u00f3n", "rank": 4}, "geometry": {"type": "Point", "coordinates": [-56.33, 47.04]}}, {"type": "Feature", "properties": {"nombre": "Wallis y Futuna", "rank": 4}, "geometry": {"type": "Point", "coordinates": [-178.14, -14.29]}}, {"type": "Feature", "properties": {"nombre": "San Mart\u00edn", "rank": 6}, "geometry": {"type": "Point", "coordinates": [-63.05, 18.08]}}, {"type": "Feature", "properties": {"nombre": "San Bartolom\u00e9", "rank": 6}, "geometry": {"type": "Point", "coordinates": [-62.83, 17.9]}}, {"type": "Feature", "properties": {"nombre": "Polinesia Francesa", "rank": 4}, "geometry": {"type": "Point", "coordinates": [-149.46, -17.63]}}, {"type": "Feature", "properties": {"nombre": "Nueva Caledonia", "rank": 3}, "geometry": {"type": "Point", "coordinates": [165.08, -21.06]}}, {"type": "Feature", "properties": {"nombre": "Tierras Australes y Ant\u00e1rticas Francesas", "rank": 6}, "geometry": {"type": "Point", "coordinates": [69.12, -49.3]}}, {"type": "Feature", "properties": {"nombre": "\u00c5land", "rank": 6}, "geometry": {"type": "Point", "coordinates": [19.87, 60.16]}}, {"type": "Feature", "properties": {"nombre": "Finlandia", "rank": 3}, "geometry": {"type": "Point", "coordinates": [27.28, 63.25]}}, {"type": "Feature", "properties": {"nombre": "Fiyi", "rank": 6}, "geometry": {"type": "Point", "coordinates": [177.98, -17.83]}}, {"type": "Feature", "properties": {"nombre": "Etiop\u00eda", "rank": 2}, "geometry": {"type": "Point", "coordinates": [39.09, 8.03]}}, {"type": "Feature", "properties": {"nombre": "Estonia", "rank": 6}, "geometry": {"type": "Point", "coordinates": [25.87, 58.72]}}, {"type": "Feature", "properties": {"nombre": "Eritrea", "rank": 4}, "geometry": {"type": "Point", "coordinates": [38.29, 15.79]}}, {"type": "Feature", "properties": {"nombre": "Guinea Ecuatorial", "rank": 4}, "geometry": {"type": "Point", "coordinates": [8.99, 2.33]}}, {"type": "Feature", "properties": {"nombre": "El Salvador", "rank": 6}, "geometry": {"type": "Point", "coordinates": [-88.89, 13.69]}}, {"type": "Feature", "properties": {"nombre": "Egipto", "rank": 2}, "geometry": {"type": "Point", "coordinates": [29.45, 26.19]}}, {"type": "Feature", "properties": {"nombre": "Ecuador", "rank": 3}, "geometry": {"type": "Point", "coordinates": [-78.19, -1.26]}}, {"type": "Feature", "properties": {"nombre": "Rep\u00fablica Dominicana", "rank": 5}, "geometry": {"type": "Point", "coordinates": [-70.65, 19.1]}}, {"type": "Feature", "properties": {"nombre": "Dominica", "rank": 6}, "geometry": {"type": "Point", "coordinates": [-61.34, 15.46]}}, {"type": "Feature", "properties": {"nombre": "Yibuti", "rank": 5}, "geometry": {"type": "Point", "coordinates": [42.5, 11.98]}}, {"type": "Feature", "properties": {"nombre": "Groenlandia", "rank": 3}, "geometry": {"type": "Point", "coordinates": [-39.34, 74.32]}}, {"type": "Feature", "properties": {"nombre": "Islas Feroe", "rank": 6}, "geometry": {"type": "Point", "coordinates": [-7.06, 62.19]}}, {"type": "Feature", "properties": {"nombre": "Dinamarca", "rank": 4}, "geometry": {"type": "Point", "coordinates": [9.02, 55.97]}}, {"type": "Feature", "properties": {"nombre": "Rep\u00fablica Checa", "rank": 5}, "geometry": {"type": "Point", "coordinates": [15.38, 49.88]}}, {"type": "Feature", "properties": {"nombre": "Rep\u00fablica Turca del Norte de Chipre", "rank": 6}, "geometry": {"type": "Point", "coordinates": [33.69, 35.22]}}, {"type": "Feature", "properties": {"nombre": "Chipre", "rank": 5}, "geometry": {"type": "Point", "coordinates": [33.08, 34.91]}}, {"type": "Feature", "properties": {"nombre": "Cuba", "rank": 3}, "geometry": {"type": "Point", "coordinates": [-77.98, 21.33]}}, {"type": "Feature", "properties": {"nombre": "Croacia", "rank": 6}, "geometry": {"type": "Point", "coordinates": [16.37, 45.81]}}, {"type": "Feature", "properties": {"nombre": "Costa de Marfil", "rank": 3}, "geometry": {"type": "Point", "coordinates": [-5.57, 7.49]}}, {"type": "Feature", "properties": {"nombre": "Costa Rica", "rank": 5}, "geometry": {"type": "Point", "coordinates": [-84.08, 10.07]}}, {"type": "Feature", "properties": {"nombre": "Rep\u00fablica Democr\u00e1tica del Congo", "rank": 2}, "geometry": {"type": "Point", "coordinates": [23.46, -1.86]}}, {"type": "Feature", "properties": {"nombre": "Rep\u00fablica del Congo", "rank": 4}, "geometry": {"type": "Point", "coordinates": [15.9, 0.14]}}, {"type": "Feature", "properties": {"nombre": "Comoras", "rank": 6}, "geometry": {"type": "Point", "coordinates": [43.32, -11.73]}}, {"type": "Feature", "properties": {"nombre": "Colombia", "rank": 2}, "geometry": {"type": "Point", "coordinates": [-73.17, 3.37]}}, {"type": "Feature", "properties": {"nombre": "China", "rank": 2}, "geometry": {"type": "Point", "coordinates": [106.34, 32.5]}}, {"type": "Feature", "properties": {"nombre": "Macao", "rank": 4}, "geometry": {"type": "Point", "coordinates": [113.56, 22.13]}}, {"type": "Feature", "properties": {"nombre": "Hong Kong", "rank": 4}, "geometry": {"type": "Point", "coordinates": [114.1, 22.45]}}, {"type": "Feature", "properties": {"nombre": "Chile", "rank": 2}, "geometry": {"type": "Point", "coordinates": [-72.32, -38.15]}}, {"type": "Feature", "properties": {"nombre": "Chad", "rank": 3}, "geometry": {"type": "Point", "coordinates": [18.65, 15.14]}}, {"type": "Feature", "properties": {"nombre": "Rep\u00fablica Centroafricana", "rank": 4}, "geometry": {"type": "Point", "coordinates": [20.91, 6.99]}}, {"type": "Feature", "properties": {"nombre": "Cabo Verde", "rank": 4}, "geometry": {"type": "Point", "coordinates": [-23.64, 15.07]}}, {"type": "Feature", "properties": {"nombre": "Canad\u00e1", "rank": 2}, "geometry": {"type": "Point", "coordinates": [-101.91, 60.32]}}, {"type": "Feature", "properties": {"nombre": "Camer\u00fan", "rank": 3}, "geometry": {"type": "Point", "coordinates": [12.47, 4.59]}}, {"type": "Feature", "properties": {"nombre": "Camboya", "rank": 3}, "geometry": {"type": "Point", "coordinates": [104.5, 12.65]}}, {"type": "Feature", "properties": {"nombre": "Birmania", "rank": 3}, "geometry": {"type": "Point", "coordinates": [95.8, 21.57]}}, {"type": "Feature", "properties": {"nombre": "Burundi", "rank": 6}, "geometry": {"type": "Point", "coordinates": [29.92, -3.33]}}, {"type": "Feature", "properties": {"nombre": "Burkina Faso", "rank": 3}, "geometry": {"type": "Point", "coordinates": [-1.36, 12.67]}}, {"type": "Feature", "properties": {"nombre": "Bulgaria", "rank": 4}, "geometry": {"type": "Point", "coordinates": [25.16, 42.51]}}, {"type": "Feature", "properties": {"nombre": "Brun\u00e9i", "rank": 6}, "geometry": {"type": "Point", "coordinates": [114.55, 4.45]}}, {"type": "Feature", "properties": {"nombre": "Brasil", "rank": 2}, "geometry": {"type": "Point", "coordinates": [-49.56, -12.1]}}, {"type": "Feature", "properties": {"nombre": "Botsuana", "rank": 4}, "geometry": {"type": "Point", "coordinates": [24.18, -22.1]}}, {"type": "Feature", "properties": {"nombre": "Bosnia y Herzegovina", "rank": 5}, "geometry": {"type": "Point", "coordinates": [18.07, 44.09]}}, {"type": "Feature", "properties": {"nombre": "Bolivia", "rank": 3}, "geometry": {"type": "Point", "coordinates": [-64.59, -16.67]}}, {"type": "Feature", "properties": {"nombre": "But\u00e1n", "rank": 5}, "geometry": {"type": "Point", "coordinates": [90.04, 27.54]}}, {"type": "Feature", "properties": {"nombre": "Ben\u00edn", "rank": 5}, "geometry": {"type": "Point", "coordinates": [2.35, 10.32]}}, {"type": "Feature", "properties": {"nombre": "Belice", "rank": 6}, "geometry": {"type": "Point", "coordinates": [-88.71, 17.2]}}, {"type": "Feature", "properties": {"nombre": "B\u00e9lgica", "rank": 2}, "geometry": {"type": "Point", "coordinates": [4.8, 50.79]}}, {"type": "Feature", "properties": {"nombre": "Bielorrusia", "rank": 4}, "geometry": {"type": "Point", "coordinates": [28.42, 53.82]}}, {"type": "Feature", "properties": {"nombre": "Barbados", "rank": 5}, "geometry": {"type": "Point", "coordinates": [-59.57, 13.16]}}, {"type": "Feature", "properties": {"nombre": "Banglad\u00e9s", "rank": 3}, "geometry": {"type": "Point", "coordinates": [89.68, 24.21]}}, {"type": "Feature", "properties": {"nombre": "Bar\u00e9in", "rank": 4}, "geometry": {"type": "Point", "coordinates": [50.55, 26.06]}}, {"type": "Feature", "properties": {"nombre": "Bahamas", "rank": 4}, "geometry": {"type": "Point", "coordinates": [-77.15, 26.4]}}, {"type": "Feature", "properties": {"nombre": "Azerbaiy\u00e1n", "rank": 5}, "geometry": {"type": "Point", "coordinates": [47.21, 40.4]}}, {"type": "Feature", "properties": {"nombre": "Austria", "rank": 4}, "geometry": {"type": "Point", "coordinates": [14.13, 47.52]}}, {"type": "Feature", "properties": {"nombre": "Australia", "rank": 2}, "geometry": {"type": "Point", "coordinates": [134.05, -24.13]}}, {"type": "Feature", "properties": {"nombre": "Territorios Australianos del Oc\u00e9ano \u00cdndico", "rank": 5}, "geometry": {"type": "Point", "coordinates": [105.67, -10.49]}}, {"type": "Feature", "properties": {"nombre": "Islas Heard y McDonald", "rank": 5}, "geometry": {"type": "Point", "coordinates": [73.51, -53.1]}}, {"type": "Feature", "properties": {"nombre": "Isla Norfolk", "rank": 5}, "geometry": {"type": "Point", "coordinates": [167.95, -29.03]}}, {"type": "Feature", "properties": {"nombre": "Islas Ashmore y Cartier", "rank": 5}, "geometry": {"type": "Point", "coordinates": [123.59, -12.43]}}, {"type": "Feature", "properties": {"nombre": "Armenia", "rank": 6}, "geometry": {"type": "Point", "coordinates": [44.8, 40.46]}}, {"type": "Feature", "properties": {"nombre": "Argentina", "rank": 2}, "geometry": {"type": "Point", "coordinates": [-64.17, -33.5]}}, {"type": "Feature", "properties": {"nombre": "Antigua y Barbuda", "rank": 6}, "geometry": {"type": "Point", "coordinates": [-61.79, 17.35]}}, {"type": "Feature", "properties": {"nombre": "Angola", "rank": 3}, "geometry": {"type": "Point", "coordinates": [17.98, -12.18]}}, {"type": "Feature", "properties": {"nombre": "Andorra", "rank": 6}, "geometry": {"type": "Point", "coordinates": [1.54, 42.55]}}, {"type": "Feature", "properties": {"nombre": "Argelia", "rank": 3}, "geometry": {"type": "Point", "coordinates": [2.81, 27.4]}}, {"type": "Feature", "properties": {"nombre": "Albania", "rank": 6}, "geometry": {"type": "Point", "coordinates": [20.11, 40.65]}}, {"type": "Feature", "properties": {"nombre": "Afganist\u00e1n", "rank": 3}, "geometry": {"type": "Point", "coordinates": [66.5, 34.16]}}, {"type": "Feature", "properties": {"nombre": "Glaciar de Siachen", "rank": 5}, "geometry": {"type": "Point", "coordinates": [77.13, 35.34]}}, {"type": "Feature", "properties": {"nombre": "Ant\u00e1rtida", "rank": 4}, "geometry": {"type": "Point", "coordinates": [35.89, -79.84]}}, {"type": "Feature", "properties": {"nombre": "San Mart\u00edn", "rank": 6}, "geometry": {"type": "Point", "coordinates": [-63.07, 18.04]}}, {"type": "Feature", "properties": {"nombre": "Tuvalu", "rank": 6}, "geometry": {"type": "Point", "coordinates": [179.21, -8.51]}}]}