{"type": "FeatureCollection", "features": [{"type": "Feature", "properties": {"nombre": "Entre R\u00edos"}, "geometry": {"type": "Point", "coordinates": [-59.282, -32.028]}}, {"type": "Feature", "properties": {"nombre": "Paysand\u00fa"}, "geometry": {"type": "Point", "coordinates": [-57.224, -32.093]}}, {"type": "Feature", "properties": {"nombre": "La Paz"}, "geometry": {"type": "Point", "coordinates": [-68.213, -14.834]}}, {"type": "Feature", "properties": {"nombre": "Oruro"}, "geometry": {"type": "Point", "coordinates": [-67.598, -18.715]}}, {"type": "Feature", "properties": {"nombre": "Potos\u00ed"}, "geometry": {"type": "Point", "coordinates": [-66.77, -20.903]}}, {"type": "Feature", "properties": {"nombre": "Salta"}, "geometry": {"type": "Point", "coordinates": [-64.472, -25.02]}}, {"type": "Feature", "properties": {"nombre": "Jujuy"}, "geometry": {"type": "Point", "coordinates": [-65.705, -23.176]}}, {"type": "Feature", "properties": {"nombre": "Rio Grande do Sul"}, "geometry": {"type": "Point", "coordinates": [-53.656, -29.728]}}, {"type": "Feature", "properties": {"nombre": "Artigas"}, "geometry": {"type": "Point", "coordinates": [-56.94, -30.572]}}, {"type": "Feature", "properties": {"nombre": "Roraima"}, "geometry": {"type": "Point", "coordinates": [-61.333, 1.938]}}, {"type": "Feature", "properties": {"nombre": "Par\u00e1"}, "geometry": {"type": "Point", "coordinates": [-52.649, -4.443]}}, {"type": "Feature", "properties": {"nombre": "Acre"}, "geometry": {"type": "Point", "coordinates": [-70.298, -8.928]}}, {"type": "Feature", "properties": {"nombre": "Amap\u00e1"}, "geometry": {"type": "Point", "coordinates": [-51.684, 1.412]}}, {"type": "Feature", "properties": {"nombre": "Tarija"}, "geometry": {"type": "Point", "coordinates": [-63.8, -21.504]}}, {"type": "Feature", "properties": {"nombre": "Boquer\u00f3n"}, "geometry": {"type": "Point", "coordinates": [-60.978, -22.094]}}, {"type": "Feature", "properties": {"nombre": "Formosa"}, "geometry": {"type": "Point", "coordinates": [-59.949, -24.915]}}, {"type": "Feature", "properties": {"nombre": "Presidente Hayes"}, "geometry": {"type": "Point", "coordinates": [-58.942, -23.423]}}, {"type": "Feature", "properties": {"nombre": "Central"}, "geometry": {"type": "Point", "coordinates": [-57.526, -25.671]}}, {"type": "Feature", "properties": {"nombre": "Asunci\u00f3n"}, "geometry": {"type": "Point", "coordinates": [-57.574, -25.31]}}, {"type": "Feature", "properties": {"nombre": "Alto Paran\u00e1"}, "geometry": {"type": "Point", "coordinates": [-54.943, -25.376]}}, {"type": "Feature", "properties": {"nombre": "Misiones"}, "geometry": {"type": "Point", "coordinates": [-54.841, -27.126]}}, {"type": "Feature", "properties": {"nombre": "Itap\u00faa"}, "geometry": {"type": "Point", "coordinates": [-55.677, -26.855]}}, {"type": "Feature", "properties": {"nombre": "\u00d1eembuc\u00fa"}, "geometry": {"type": "Point", "coordinates": [-57.928, -26.664]}}, {"type": "Feature", "properties": {"nombre": "Chaco"}, "geometry": {"type": "Point", "coordinates": [-60.875, -26.509]}}, {"type": "Feature", "properties": {"nombre": "Corrientes"}, "geometry": {"type": "Point", "coordinates": [-57.648, -28.839]}}, {"type": "Feature", "properties": {"nombre": "Misiones"}, "geometry": {"type": "Point", "coordinates": [-57.119, -26.986]}}, {"type": "Feature", "properties": {"nombre": "Santa Cruz"}, "geometry": {"type": "Point", "coordinates": [-61.137, -16.517]}}, {"type": "Feature", "properties": {"nombre": "Mato Grosso do Sul"}, "geometry": {"type": "Point", "coordinates": [-54.55, -20.676]}}, {"type": "Feature", "properties": {"nombre": "Alto Paraguay"}, "geometry": {"type": "Point", "coordinates": [-59.871, -21.796]}}, {"type": "Feature", "properties": {"nombre": "Concepci\u00f3n"}, "geometry": {"type": "Point", "coordinates": [-57.054, -22.846]}}, {"type": "Feature", "properties": {"nombre": "Amambay"}, "geometry": {"type": "Point", "coordinates": [-56.179, -23.23]}}, {"type": "Feature", "properties": {"nombre": "Canindey\u00fa"}, "geometry": {"type": "Point", "coordinates": [-55.202, -24.257]}}, {"type": "Feature", "properties": {"nombre": "Paran\u00e1"}, "geometry": {"type": "Point", "coordinates": [-51.323, -24.662]}}, {"type": "Feature", "properties": {"nombre": "Santa Catarina"}, "geometry": {"type": "Point", "coordinates": [-51.159, -27.039]}}, {"type": "Feature", "properties": {"nombre": "Amazonas"}, "geometry": {"type": "Point", "coordinates": [-63.785, -4.218]}}, {"type": "Feature", "properties": {"nombre": "Chuquisaca"}, "geometry": {"type": "Point", "coordinates": [-63.953, -20.085]}}, {"type": "Feature", "properties": {"nombre": "Pando"}, "geometry": {"type": "Point", "coordinates": [-67.432, -11.273]}}, {"type": "Feature", "properties": {"nombre": "Rond\u00f4nia"}, "geometry": {"type": "Point", "coordinates": [-63.144, -10.971]}}, {"type": "Feature", "properties": {"nombre": "El Beni"}, "geometry": {"type": "Point", "coordinates": [-64.581, -14.036]}}, {"type": "Feature", "properties": {"nombre": "Mato Grosso"}, "geometry": {"type": "Point", "coordinates": [-55.923, -13.393]}}, {"type": "Feature", "properties": {"nombre": "Catamarca"}, "geometry": {"type": "Point", "coordinates": [-67.009, -26.771]}}, {"type": "Feature", "properties": {"nombre": "La Rioja"}, "geometry": {"type": "Point", "coordinates": [-67.528, -29.376]}}, {"type": "Feature", "properties": {"nombre": "San Juan"}, "geometry": {"type": "Point", "coordinates": [-68.661, -30.97]}}, {"type": "Feature", "properties": {"nombre": "Mendoza"}, "geometry": {"type": "Point", "coordinates": [-68.542, -34.848]}}, {"type": "Feature", "properties": {"nombre": "Neuqu\u00e9n"}, "geometry": {"type": "Point", "coordinates": [-69.983, -38.358]}}, {"type": "Feature", "properties": {"nombre": "Chubut"}, "geometry": {"type": "Point", "coordinates": [-67.864, -43.999]}}, {"type": "Feature", "properties": {"nombre": "R\u00edo Negro"}, "geometry": {"type": "Point", "coordinates": [-67.364, -40.126]}}, {"type": "Feature", "properties": {"nombre": "Santa Cruz"}, "geometry": {"type": "Point", "coordinates": [-69.66, -49.043]}}, {"type": "Feature", "properties": {"nombre": "Tierra del Fuego"}, "geometry": {"type": "Point", "coordinates": [-67.533, -54.389]}}, {"type": "Feature", "properties": {"nombre": "Salto"}, "geometry": {"type": "Point", "coordinates": [-57.043, -31.44]}}, {"type": "Feature", "properties": {"nombre": "Rivera"}, "geometry": {"type": "Point", "coordinates": [-55.328, -31.468]}}, {"type": "Feature", "properties": {"nombre": "Rocha"}, "geometry": {"type": "Point", "coordinates": [-53.958, -33.911]}}, {"type": "Feature", "properties": {"nombre": "Treinta y Tres"}, "geometry": {"type": "Point", "coordinates": [-54.166, -33.102]}}, {"type": "Feature", "properties": {"nombre": "Cerro Largo"}, "geometry": {"type": "Point", "coordinates": [-54.228, -32.296]}}, {"type": "Feature", "properties": {"nombre": "Buenos Aires"}, "geometry": {"type": "Point", "coordinates": [-60.113, -36.673]}}, {"type": "Feature", "properties": {"nombre": "Maranh\u00e3o"}, "geometry": {"type": "Point", "coordinates": [-45.389, -5.019]}}, {"type": "Feature", "properties": {"nombre": "Piau\u00ed"}, "geometry": {"type": "Point", "coordinates": [-43.197, -8.087]}}, {"type": "Feature", "properties": {"nombre": "Cear\u00e1"}, "geometry": {"type": "Point", "coordinates": [-39.343, -5.376]}}, {"type": "Feature", "properties": {"nombre": "Rio Grande do Norte"}, "geometry": {"type": "Point", "coordinates": [-36.547, -5.662]}}, {"type": "Feature", "properties": {"nombre": "Para\u00edba"}, "geometry": {"type": "Point", "coordinates": [-36.273, -7.342]}}, {"type": "Feature", "properties": {"nombre": "Pernambuco"}, "geometry": {"type": "Point", "coordinates": [-37.296, -8.473]}}, {"type": "Feature", "properties": {"nombre": "Alagoas"}, "geometry": {"type": "Point", "coordinates": [-36.692, -9.774]}}, {"type": "Feature", "properties": {"nombre": "Sergipe"}, "geometry": {"type": "Point", "coordinates": [-37.384, -10.592]}}, {"type": "Feature", "properties": {"nombre": "Bahia"}, "geometry": {"type": "Point", "coordinates": [-41.803, -12.365]}}, {"type": "Feature", "properties": {"nombre": "Esp\u00edrito Santo"}, "geometry": {"type": "Point", "coordinates": [-40.544, -19.692]}}, {"type": "Feature", "properties": {"nombre": "Rio de Janeiro"}, "geometry": {"type": "Point", "coordinates": [-43.115, -22.405]}}, {"type": "Feature", "properties": {"nombre": "S\u00e3o Paulo"}, "geometry": {"type": "Point", "coordinates": [-48.521, -22.227]}}, {"type": "Feature", "properties": {"nombre": "Maldonado"}, "geometry": {"type": "Point", "coordinates": [-54.967, -34.688]}}, {"type": "Feature", "properties": {"nombre": "Canelones"}, "geometry": {"type": "Point", "coordinates": [-55.923, -34.547]}}, {"type": "Feature", "properties": {"nombre": "Montevideo"}, "geometry": {"type": "Point", "coordinates": [-56.228, -34.827]}}, {"type": "Feature", "properties": {"nombre": "San Jos\u00e9"}, "geometry": {"type": "Point", "coordinates": [-56.765, -34.312]}}, {"type": "Feature", "properties": {"nombre": "Colonia"}, "geometry": {"type": "Point", "coordinates": [-57.679, -34.195]}}, {"type": "Feature", "properties": {"nombre": "Soriano"}, "geometry": {"type": "Point", "coordinates": [-57.758, -33.482]}}, {"type": "Feature", "properties": {"nombre": "R\u00edo Negro"}, "geometry": {"type": "Point", "coordinates": [-57.489, -32.744]}}, {"type": "Feature", "properties": {"nombre": "Ciudad de Buenos Aires"}, "geometry": {"type": "Point", "coordinates": [-58.453, -34.62]}}, {"type": "Feature", "properties": {"nombre": "Tacuaremb\u00f3"}, "geometry": {"type": "Point", "coordinates": [-55.661, -32.106]}}, {"type": "Feature", "properties": {"nombre": "Durazno"}, "geometry": {"type": "Point", "coordinates": [-56.094, -33.102]}}, {"type": "Feature", "properties": {"nombre": "Flores"}, "geometry": {"type": "Point", "coordinates": [-56.885, -33.59]}}, {"type": "Feature", "properties": {"nombre": "Florida"}, "geometry": {"type": "Point", "coordinates": [-55.812, -33.835]}}, {"type": "Feature", "properties": {"nombre": "Lavalleja"}, "geometry": {"type": "Point", "coordinates": [-54.872, -33.879]}}, {"type": "Feature", "properties": {"nombre": "San Pedro"}, "geometry": {"type": "Point", "coordinates": [-56.605, -24.2]}}, {"type": "Feature", "properties": {"nombre": "Caaguaz\u00fa"}, "geometry": {"type": "Point", "coordinates": [-55.882, -25.223]}}, {"type": "Feature", "properties": {"nombre": "Cordillera"}, "geometry": {"type": "Point", "coordinates": [-56.975, -25.251]}}, {"type": "Feature", "properties": {"nombre": "Caazap\u00e1"}, "geometry": {"type": "Point", "coordinates": [-56.005, -26.201]}}, {"type": "Feature", "properties": {"nombre": "Paraguar\u00ed"}, "geometry": {"type": "Point", "coordinates": [-57.146, -25.98]}}, {"type": "Feature", "properties": {"nombre": "Guair\u00e1"}, "geometry": {"type": "Point", "coordinates": [-56.149, -25.814]}}, {"type": "Feature", "properties": {"nombre": "Goi\u00e1s"}, "geometry": {"type": "Point", "coordinates": [-49.579, -15.863]}}, {"type": "Feature", "properties": {"nombre": "Distrito Federal"}, "geometry": {"type": "Point", "coordinates": [-47.79, -15.767]}}, {"type": "Feature", "properties": {"nombre": "Minas Gerais"}, "geometry": {"type": "Point", "coordinates": [-44.481, -18.59]}}, {"type": "Feature", "properties": {"nombre": "Tocantins"}, "geometry": {"type": "Point", "coordinates": [-48.25, -10.223]}}, {"type": "Feature", "properties": {"nombre": "Cochabamba"}, "geometry": {"type": "Point", "coordinates": [-65.614, -17.288]}}, {"type": "Feature", "properties": {"nombre": "Santa Fe"}, "geometry": {"type": "Point", "coordinates": [-60.859, -30.776]}}, {"type": "Feature", "properties": {"nombre": "Tucum\u00e1n"}, "geometry": {"type": "Point", "coordinates": [-65.339, -26.971]}}, {"type": "Feature", "properties": {"nombre": "Santiago del Estero"}, "geometry": {"type": "Point", "coordinates": [-63.445, -27.688]}}, {"type": "Feature", "properties": {"nombre": "San Luis"}, "geometry": {"type": "Point", "coordinates": [-66.135, -33.947]}}, {"type": "Feature", "properties": {"nombre": "La Pampa"}, "geometry": {"type": "Point", "coordinates": [-65.839, -37.386]}}, {"type": "Feature", "properties": {"nombre": "C\u00f3rdoba"}, "geometry": {"type": "Point", "coordinates": [-63.75, -32.328]}}]}